363P Lemmon                                    2018 03 23.2963  1.508528       0.557803 315.5574 169.7603   3.9724  17.5   4.0
364P PANSTARRS                                 2018 06 24.3693  0.798040       0.722692 211.9449  46.2210  12.1542  17.0   2.0
365P PANSTARRS                                 2018 02 10.8275  1.356967       0.573849  66.3247  87.4380   9.8405  17.0   4.0
366P Spacewatch                                2018 07 21.5052  2.277145       0.348852 153.2260  70.7556   8.8597  15.0   4.0
367P Catalina                                  2018 06 21.7467  2.521078       0.280935 172.9648  58.7166   8.4638  17.5   2.0
368P NEAT                                      2018 09 14.2459  2.067653       0.625865 118.7992 257.9771  15.4850  14.0   4.0
369P Hill                                      2018 10 15.1268  1.957012       0.554165  13.2718  47.3188  10.3080  15.0   4.0
370P NEAT                                      2018 06 09.4164  2.484933       0.614304 356.7525  55.1612  19.3969  13.0   4.0
371P LINEAR-Skiff                              2018 10 04.5826  2.190958       0.476063 308.4743  67.3346  17.3797  16.0   4.0
372P McNaught                                  2018 10 19.5313  3.815147       0.152005  26.9615 325.8377   9.5100  13.5   4.0
373P Rinner                                    2019 04 09.1367  2.313445       0.392425 221.2094 231.9577  13.7575  14.5   4.0
374P Larson                                    2019 01 10.8262  2.676575       0.462281  51.5845   7.9310  10.7576  14.0   4.0
375P Hill                                      2018 12 21.4357  1.895204       0.659196 119.4280 359.9632  17.3660  16.0   4.0
